KUIPER-00191            
1 67143U 25301L   26185.51131582  .00001315  00000+0  20152-3 0  9992
2 67143  51.9008 276.5647 0000568  95.7748 264.3279 14.79924652 30951
KUIPER-00204            
1 67145U 25301N   26186.31752614  .00004547  00000+0  62537-3 0  9991
2 67145  51.9001 245.4826 0000246  94.0979 266.0012 14.79910535 31546
KUIPER-00210            
1 67146U 25301P   26186.28790389  .00001161  00000+0  18126-3 0  9993
2 67146  51.9005 273.0844 0000439  91.7666 268.3346 14.79930577 31216
KUIPER-00221            
1 67147U 25301Q   26185.57075876  .00003749  00000+0  52047-3 0  9996
2 67147  51.8997 283.7772 0000562 103.3992 256.7033 14.79934094 30832
KUIPER-00232            
1 67148U 25301R   26185.62070537  .00001061  00000+0  16810-3 0  9995
2 67148  51.8990 268.5839 0000605  87.9656 272.1376 14.79931894 31044
KUIPER-00241            
1 67149U 25301S   26186.25144138  .00008605  00000+0  11557-2 0  9998
2 67149  51.9027 275.7888 0000529 104.2883 255.8139 14.79955092 31334
KUIPER-00245            
1 67150U 25301T   26186.24334007 -.00001611  00000+0 -18237-3 0  9990
2 67150  51.9006 283.3356 0000773 100.7806 259.3244 14.79941405 30894
KUIPER-00246            
1 67151U 25301U   26186.22576710  .00002170  00000+0  31360-3 0  9999
2 67151  51.8987 268.3683 0000666  99.8153 260.2884 14.79934020 31125
KUIPER-00247            
1 67152U 25301V   26186.23655177  .00001139  00000+0  17839-3 0  9995
2 67152  51.8931 258.2954 0000496  96.1654 263.9365 14.79930829 31241
KUIPER-00248            
1 67153U 25301W   26186.52556450  .00003700  00000+0  51477-3 0  9994
2 67153  51.8966 239.6452 0000978  65.5124 294.5940 14.79877291 31694
KUIPER-00249            
1 67154U 25301X   26186.57690806  .00002760  00000+0  39085-3 0  9990
2 67154  51.8964 254.3473 0000781 104.7332 255.3717 14.79935126 31328
KUIPER-00250            
1 67155U 25301Y   26186.25681132 -.00001040  00000+0 -10731-3 0  9997
2 67155  51.8971 270.7165 0001539 113.5559 246.5565 14.79941421 31102
KUIPER-00251            
1 67156U 25301Z   26185.18984269  .00001279  00000+0  19683-3 0  9993
2 67156  51.9005 263.0007 0000387  88.7935 271.3072 14.79924457 31270
KUIPER-00252            
1 67157U 25301AA  26186.20009478  .00001269  00000+0  19538-3 0  9996
2 67157  51.8984 260.9852 0000571  94.8294 265.2733 14.79931702 31201
