{"fetched_at":"2026-07-06T08:46:35.713Z","source":"https://celestrak.org/NORAD/elements/gp.php?GROUP=kuiper&FORMAT=JSON","constellation":"kuiper","records":[{"OBJECT_NAME":"KUIPER-00191","OBJECT_ID":"2025-301L","EPOCH":"2026-07-04T12:16:17.686848","CLASSIFICATION_TYPE":"U","MEAN_MOTION":14.79924652,"ECCENTRICITY":0.0000568,"INCLINATION":51.9008,"RA_OF_ASC_NODE":276.5647,"ARG_OF_PERICENTER":95.7748,"MEAN_ANOMALY":264.3279,"EPHEMERIS_TYPE":0,"NORAD_CAT_ID":67143,"ELEMENT_SET_NO":999,"REV_AT_EPOCH":3095,"BSTAR":0.00020152,"MEAN_MOTION_DOT":0.00001315,"MEAN_MOTION_DDOT":0},{"OBJECT_NAME":"KUIPER-00204","OBJECT_ID":"2025-301N","EPOCH":"2026-07-05T07:37:14.257632","CLASSIFICATION_TYPE":"U","MEAN_MOTION":14.79910535,"ECCENTRICITY":0.0000247,"INCLINATION":51.9001,"RA_OF_ASC_NODE":245.4826,"ARG_OF_PERICENTER":94.0979,"MEAN_ANOMALY":266.0012,"EPHEMERIS_TYPE":0,"NORAD_CAT_ID":67145,"ELEMENT_SET_NO":999,"REV_AT_EPOCH":3154,"BSTAR":0.00062537,"MEAN_MOTION_DOT":0.00004547,"MEAN_MOTION_DDOT":0},{"OBJECT_NAME":"KUIPER-00210","OBJECT_ID":"2025-301P","EPOCH":"2026-07-05T06:54:34.896096","CLASSIFICATION_TYPE":"U","MEAN_MOTION":14.79930577,"ECCENTRICITY":0.0000439,"INCLINATION":51.9005,"RA_OF_ASC_NODE":273.0844,"ARG_OF_PERICENTER":91.7666,"MEAN_ANOMALY":268.3346,"EPHEMERIS_TYPE":0,"NORAD_CAT_ID":67146,"ELEMENT_SET_NO":999,"REV_AT_EPOCH":3121,"BSTAR":0.00018126,"MEAN_MOTION_DOT":0.00001161,"MEAN_MOTION_DDOT":0},{"OBJECT_NAME":"KUIPER-00221","OBJECT_ID":"2025-301Q","EPOCH":"2026-07-04T13:41:53.556864","CLASSIFICATION_TYPE":"U","MEAN_MOTION":14.79934094,"ECCENTRICITY":0.00005627,"INCLINATION":51.8997,"RA_OF_ASC_NODE":283.7772,"ARG_OF_PERICENTER":103.3992,"MEAN_ANOMALY":256.7033,"EPHEMERIS_TYPE":0,"NORAD_CAT_ID":67147,"ELEMENT_SET_NO":999,"REV_AT_EPOCH":3083,"BSTAR":0.00052046533,"MEAN_MOTION_DOT":0.00003749,"MEAN_MOTION_DDOT":0},{"OBJECT_NAME":"KUIPER-00232","OBJECT_ID":"2025-301R","EPOCH":"2026-07-04T14:53:48.943968","CLASSIFICATION_TYPE":"U","MEAN_MOTION":14.79931894,"ECCENTRICITY":0.00006054,"INCLINATION":51.899,"RA_OF_ASC_NODE":268.5839,"ARG_OF_PERICENTER":87.9656,"MEAN_ANOMALY":272.1376,"EPHEMERIS_TYPE":0,"NORAD_CAT_ID":67148,"ELEMENT_SET_NO":999,"REV_AT_EPOCH":3104,"BSTAR":0.00016810341,"MEAN_MOTION_DOT":0.00001061,"MEAN_MOTION_DDOT":0},{"OBJECT_NAME":"KUIPER-00241","OBJECT_ID":"2025-301S","EPOCH":"2026-07-05T06:02:04.535232","CLASSIFICATION_TYPE":"U","MEAN_MOTION":14.79955091,"ECCENTRICITY":0.000053,"INCLINATION":51.9027,"RA_OF_ASC_NODE":275.7888,"ARG_OF_PERICENTER":104.2883,"MEAN_ANOMALY":255.8139,"EPHEMERIS_TYPE":0,"NORAD_CAT_ID":67149,"ELEMENT_SET_NO":999,"REV_AT_EPOCH":3133,"BSTAR":0.0011557,"MEAN_MOTION_DOT":0.00008605,"MEAN_MOTION_DDOT":0},{"OBJECT_NAME":"KUIPER-00245","OBJECT_ID":"2025-301T","EPOCH":"2026-07-05T05:50:24.582048","CLASSIFICATION_TYPE":"U","MEAN_MOTION":14.79941405,"ECCENTRICITY":0.0000774,"INCLINATION":51.9006,"RA_OF_ASC_NODE":283.3356,"ARG_OF_PERICENTER":100.7806,"MEAN_ANOMALY":259.3244,"EPHEMERIS_TYPE":0,"NORAD_CAT_ID":67150,"ELEMENT_SET_NO":999,"REV_AT_EPOCH":3089,"BSTAR":-0.00018237,"MEAN_MOTION_DOT":-0.00001611,"MEAN_MOTION_DDOT":0},{"OBJECT_NAME":"KUIPER-00246","OBJECT_ID":"2025-301U","EPOCH":"2026-07-05T05:25:06.276576","CLASSIFICATION_TYPE":"U","MEAN_MOTION":14.7993402,"ECCENTRICITY":0.0000667,"INCLINATION":51.8987,"RA_OF_ASC_NODE":268.3683,"ARG_OF_PERICENTER":99.8153,"MEAN_ANOMALY":260.2884,"EPHEMERIS_TYPE":0,"NORAD_CAT_ID":67151,"ELEMENT_SET_NO":999,"REV_AT_EPOCH":3112,"BSTAR":0.0003136,"MEAN_MOTION_DOT":0.0000217,"MEAN_MOTION_DDOT":0},{"OBJECT_NAME":"KUIPER-00247","OBJECT_ID":"2025-301V","EPOCH":"2026-07-05T05:40:38.072064","CLASSIFICATION_TYPE":"U","MEAN_MOTION":14.79930829,"ECCENTRICITY":0.0000496,"INCLINATION":51.8931,"RA_OF_ASC_NODE":258.2954,"ARG_OF_PERICENTER":96.1654,"MEAN_ANOMALY":263.9365,"EPHEMERIS_TYPE":0,"NORAD_CAT_ID":67152,"ELEMENT_SET_NO":999,"REV_AT_EPOCH":3124,"BSTAR":0.00017839,"MEAN_MOTION_DOT":0.00001139,"MEAN_MOTION_DDOT":0},{"OBJECT_NAME":"KUIPER-00248","OBJECT_ID":"2025-301W","EPOCH":"2026-07-05T12:36:48.771936","CLASSIFICATION_TYPE":"U","MEAN_MOTION":14.79877291,"ECCENTRICITY":0.0000978,"INCLINATION":51.8966,"RA_OF_ASC_NODE":239.6452,"ARG_OF_PERICENTER":65.5124,"MEAN_ANOMALY":294.594,"EPHEMERIS_TYPE":0,"NORAD_CAT_ID":67153,"ELEMENT_SET_NO":999,"REV_AT_EPOCH":3169,"BSTAR":0.00051477,"MEAN_MOTION_DOT":0.000037,"MEAN_MOTION_DDOT":0},{"OBJECT_NAME":"KUIPER-00249","OBJECT_ID":"2025-301X","EPOCH":"2026-07-05T13:50:44.856384","CLASSIFICATION_TYPE":"U","MEAN_MOTION":14.79935126,"ECCENTRICITY":0.0000781,"INCLINATION":51.8964,"RA_OF_ASC_NODE":254.3473,"ARG_OF_PERICENTER":104.7332,"MEAN_ANOMALY":255.3717,"EPHEMERIS_TYPE":0,"NORAD_CAT_ID":67154,"ELEMENT_SET_NO":999,"REV_AT_EPOCH":3132,"BSTAR":0.00039084703,"MEAN_MOTION_DOT":0.0000276,"MEAN_MOTION_DDOT":0},{"OBJECT_NAME":"KUIPER-00250","OBJECT_ID":"2025-301Y","EPOCH":"2026-07-05T06:09:48.498048","CLASSIFICATION_TYPE":"U","MEAN_MOTION":14.7994142,"ECCENTRICITY":0.000154,"INCLINATION":51.8971,"RA_OF_ASC_NODE":270.7165,"ARG_OF_PERICENTER":113.5559,"MEAN_ANOMALY":246.5565,"EPHEMERIS_TYPE":0,"NORAD_CAT_ID":67155,"ELEMENT_SET_NO":999,"REV_AT_EPOCH":3110,"BSTAR":-0.00010731,"MEAN_MOTION_DOT":-0.0000104,"MEAN_MOTION_DDOT":0},{"OBJECT_NAME":"KUIPER-00251","OBJECT_ID":"2025-301Z","EPOCH":"2026-07-04T04:33:22.408416","CLASSIFICATION_TYPE":"U","MEAN_MOTION":14.79924457,"ECCENTRICITY":0.0000387,"INCLINATION":51.9005,"RA_OF_ASC_NODE":263.0007,"ARG_OF_PERICENTER":88.7935,"MEAN_ANOMALY":271.3072,"EPHEMERIS_TYPE":0,"NORAD_CAT_ID":67156,"ELEMENT_SET_NO":999,"REV_AT_EPOCH":3127,"BSTAR":0.00019683,"MEAN_MOTION_DOT":0.00001279,"MEAN_MOTION_DDOT":0},{"OBJECT_NAME":"KUIPER-00252","OBJECT_ID":"2025-301AA","EPOCH":"2026-07-05T04:48:08.188128","CLASSIFICATION_TYPE":"U","MEAN_MOTION":14.79931702,"ECCENTRICITY":0.0000572,"INCLINATION":51.8984,"RA_OF_ASC_NODE":260.9852,"ARG_OF_PERICENTER":94.8294,"MEAN_ANOMALY":265.2733,"EPHEMERIS_TYPE":0,"NORAD_CAT_ID":67157,"ELEMENT_SET_NO":999,"REV_AT_EPOCH":3120,"BSTAR":0.00019538,"MEAN_MOTION_DOT":0.00001269,"MEAN_MOTION_DDOT":0}]}
